SBSS (USA 216)          
1 37168U 10048A   26068.88624904  .00004946  00000+0  24191-3 0  9993
2 37168  97.7474 312.3885 0082264 184.8326 306.5835 15.15724210837421
STARLINK-35345          
1 65833U 25221L   26068.35202101  .00029671  00000+0  10098-2 0  9997
2 65833  53.1584  89.7746 0001290  88.4744 271.6405 15.30204197 26039
